H1 CPF 01  gfz 2021 02 22 13  5532 terrasarx 
H2 0702601  6201 31698    2021 02 22 12 59 42 2021 02 27 00 00 42   120 1 1  0 0 0
H9
10 0 59269  56142.000000  0   -4493094.090  -3878984.667   3487120.560
10 0 59269  56262.000000  0   -4924300.504  -3997179.357   2680823.652
10 0 59269  56382.000000  0   -5270802.654  -4038675.841   1827316.698
10 0 59269  56502.000000  0   -5525207.811  -4004296.462    941629.675
10 0 59269  56622.000000  0   -5681777.968  -3896317.751     39362.106
10 0 59269  56742.000000  0   -5736558.030  -3718400.509   -863599.837
10 0 59269  56862.000000  0   -5687468.464  -3475491.568  -1751372.871
10 0 59269  56982.000000  0   -5534358.222  -3173698.594  -2608365.308
10 0 59269  57102.000000  0   -5279018.614  -2820143.249  -3419556.435
10 0 59269  57222.000000  0   -4925158.672  -2422796.481  -4170762.512
10 0 59269  57342.000000  0   -4478343.366  -1990300.194  -4848883.801
10 0 59269  57462.000000  0   -3945896.321  -1531780.276  -5442128.763
10 0 59269  57582.000000  0   -3336770.047  -1056654.577  -5940211.548
10 0 59269  57702.000000  0   -2661387.464   -574440.675  -6334519.744
10 0 59269  57822.000000  0   -1931458.400    -94567.738  -6618251.913
10 0 59269  57942.000000  0   -1159773.970    373803.824  -6786523.082
10 0 59269  58062.000000  0    -359984.907    821951.962  -6836438.930
10 0 59269  58182.000000  0     453634.648   1241751.352  -6767139.894
10 0 59269  58302.000000  0    1266434.551   1625815.988  -6579815.345
10 0 59269  58422.000000  0    2063647.232   1967627.093  -6277687.256
10 0 59269  58542.000000  0    2830650.980   2261642.832  -5865960.468
10 0 59269  58662.000000  0    3553234.713   2503388.063  -5351741.210
10 0 59269  58782.000000  0    4217859.404   2689523.194  -4743926.003
10 0 59269  58902.000000  0    4811915.044   2817891.671  -4053059.547
10 0 59269  59022.000000  0    5323965.640   2887543.689  -3291160.856
10 0 59269  59142.000000  0    5743976.282   2898735.863  -2471521.940
10 0 59269  59262.000000  0    6063520.335   2852907.320  -1608480.643
10 0 59269  59382.000000  0    6275957.596   2752629.874   -717168.925
10 0 59269  59502.000000  0    6376580.040   2601534.897    186755.710
10 0 59269  59622.000000  0    6362719.657   2404216.665   1087392.628
10 0 59269  59742.000000  0    6233815.919   2166116.165   1968884.249
10 0 59269  59862.000000  0    5991442.928   1893388.844   2815704.518
10 0 59269  59982.000000  0    5639291.520   1592756.982   3612941.190
10 0 59269  60102.000000  0    5183108.696   1271352.485   4346565.308
10 0 59269  60222.000000  0    4630595.150    936553.548   5003680.875
10 0 59269  60342.000000  0    3991267.296    595820.221   5572751.679
10 0 59269  60462.000000  0    3276283.372    256531.057   6043802.536
10 0 59269  60582.000000  0    2498239.299    -74173.304   6408587.928
10 0 59269  60702.000000  0    1670941.898   -389536.804   6660729.847
10 0 59269  60822.000000  0     809160.572   -683323.667   6795824.697
10 0 59269  60942.000000  0     -71639.260   -949940.451   6811515.550
10 0 59269  61062.000000  0    -955573.797  -1184541.600   6707529.622
10 0 59269  61182.000000  0   -1826626.342  -1383117.644   6485681.849
10 0 59269  61302.000000  0   -2668935.640  -1542563.337   6149844.195
10 0 59269  61422.000000  0   -3467083.319  -1660725.474   5705884.114
10 0 59269  61542.000000  0   -4206380.083  -1736431.399   5161569.831
10 0 59269  61662.000000  0   -4873141.723  -1769496.695   4526439.787
10 0 59269  61782.000000  0   -5454949.781  -1760710.766   3811639.645
10 0 59269  61902.000000  0   -5940890.440  -1711800.342   3029729.148
10 0 59269  62022.000000  0   -6321767.806  -1625372.645   2194463.339
10 0 59269  62142.000000  0   -6590288.826  -1504839.872   1320549.319
10 0 59269  62262.000000  0   -6741211.025  -1354325.208    423380.329
10 0 59269  62382.000000  0   -6771448.864  -1178552.695   -481243.281
10 0 59269  62502.000000  0   -6680136.903   -982724.303  -1377401.539
10 0 59269  62622.000000  0   -6468647.668   -772387.382  -2249343.701
10 0 59269  62742.000000  0   -6140565.186   -553296.612  -3081771.526
10 0 59269  62862.000000  0   -5701614.911   -331273.769  -3860113.088
10 0 59269  62982.000000  0   -5159551.018   -112067.098  -4570779.228
10 0 59269  63102.000000  0   -4524006.254     98784.512  -5201397.588
10 0 59269  63222.000000  0   -3806308.886    296079.358  -5741021.916
10 0 59269  63342.000000  0   -3019269.887    475069.856  -6180312.290
10 0 59269  63462.000000  0   -2176947.865    631566.706  -6511684.138
10 0 59269  63582.000000  0   -1294396.320    762028.206  -6729428.168
10 0 59269  63702.000000  0    -387395.694    863634.063  -6829798.409
10 0 59269  63822.000000  0     527823.045    934342.201  -6811068.087
10 0 59269  63942.000000  0    1434860.466    972927.307  -6673557.713
10 0 59269  64062.000000  0    2317436.904    979001.797  -6419631.958
10 0 59269  64182.000000  0    3159679.140    953018.431  -6053663.096
10 0 59269  64302.000000  0    3946401.927    896254.313  -5581962.462
10 0 59269  64422.000000  0    4663380.006    810776.075  -5012682.368
10 0 59269  64542.000000  0    5297608.629    699387.536  -4355687.087
10 0 59269  64662.000000  0    5837546.570    565560.278  -3622392.155
10 0 59269  64782.000000  0    6273335.458    413347.796  -2825574.670
10 0 59269  64902.000000  0    6596991.940    247285.581  -1979157.164
10 0 59269  65022.000000  0    6802567.730     72278.389  -1097965.829
10 0 59269  65142.000000  0    6886269.970   -106522.160   -197468.108
10 0 59269  65262.000000  0    6846540.486   -283846.479    706503.402
10 0 59269  65382.000000  0    6684091.462   -454440.293   1598036.949
10 0 59269  65502.000000  0    6401895.225   -613197.923   2461430.672
10 0 59269  65622.000000  0    6005127.426   -755292.445   3281478.908
10 0 59269  65742.000000  0    5501065.099   -876298.885   4043746.401
10 0 59269  65862.000000  0    4898946.026   -972307.852   4734826.785
10 0 59269  65982.000000  0    4209788.940  -1040027.257   5342580.609
10 0 59269  66102.000000  0    3446181.449  -1076867.589   5856346.823
10 0 59269  66222.000000  0    2622041.354  -1081011.118   6267125.863
10 0 59269  66342.000000  0    1752356.417  -1051463.357   6567731.477
10 0 59269  66462.000000  0     852907.499   -988085.911   6752911.537
10 0 59269  66582.000000  0     -60021.182   -891609.235   6819434.044
10 0 59269  66702.000000  0    -969937.056   -763625.833   6766138.597
10 0 59269  66822.000000  0   -1860435.714   -606564.174   6593954.750
10 0 59269  66942.000000  0   -2715495.014   -423642.989   6305886.686
10 0 59269  67062.000000  0   -3519762.746   -218807.091   5906965.243
10 0 59269  67182.000000  0   -4258834.799      3354.370   5404166.361
10 0 59269  67302.000000  0   -4919518.551    237705.929   4806295.288
10 0 59269  67422.000000  0   -5490075.750    478677.928   4123837.689
10 0 59269  67542.000000  0   -5960439.895    720391.397   3368779.214
10 0 59269  67662.000000  0   -6322403.131    956792.784   2554397.259
10 0 59269  67782.000000  0   -6569769.435   1181795.605   1695026.519
10 0 59269  67902.000000  0   -6698469.309   1389425.144    805802.858
10 0 59269  68022.000000  0   -6706632.893   1573963.283    -97610.597
10 0 59269  68142.000000  0   -6594617.478   1730089.249   -999308.602
10 0 59269  68262.000000  0   -6364989.768   1853012.073  -1883432.461
10 0 59269  68382.000000  0   -6022464.997   1938592.696  -2734456.583
10 0 59269  68502.000000  0   -5573802.658   1983452.331  -3537468.282
10 0 59269  68622.000000  0   -5027661.654   1985063.098  -4278432.288
10 0 59269  68742.000000  0   -4394420.960   1941819.784  -4944434.370
10 0 59269  68862.000000  0   -3685970.882   1853091.532  -5523900.591
10 0 59269  68982.000000  0   -2915481.253   1719252.925  -6006789.090
10 0 59269  69102.000000  0   -2097151.550   1541693.866  -6384754.066
10 0 59269  69222.000000  0   -1245945.798   1322808.433  -6651278.828
10 0 59269  69342.000000  0    -377320.257   1065962.848  -6801775.995
10 0 59269  69462.000000  0     493051.808    775443.951  -6833657.103
10 0 59269  69582.000000  0    1349555.046    456389.253  -6746373.659
10 0 59269  69702.000000  0    2176907.043    114697.852  -6541426.725
10 0 59269  69822.000000  0    2960424.807   -243075.578  -6222343.240
10 0 59269  69942.000000  0    3686281.924   -609842.260  -5794621.940
10 0 59269  70062.000000  0    4341750.256   -978114.924  -5265647.090
10 0 59269  70182.000000  0    4915425.481  -1340155.731  -4644573.544
10 0 59269  70302.000000  0    5397432.234  -1688134.722  -3942179.495
10 0 59269  70422.000000  0    5779603.190  -2014294.614  -3170689.064
10 0 59269  70542.000000  0    6055628.583  -2311119.275  -2343566.444
10 0 59269  70662.000000  0    6221171.640  -2571502.108  -1475284.033
10 0 59269  70782.000000  0    6273946.504  -2788909.763   -581069.077
10 0 59269  70902.000000  0    6213756.767  -2957537.453    323366.970
10 0 59269  71022.000000  0    6042492.472  -3072451.572   1222110.836
10 0 59269  71142.000000  0    5764085.579  -3129715.816   2099336.743
10 0 59269  71262.000000  0    5384421.734  -3126497.014   2939594.421
10 0 59269  71382.000000  0    4911214.035  -3061148.114   3728089.081
10 0 59269  71502.000000  0    4353840.794  -2933265.098   4450947.007
10 0 59269  71622.000000  0    3723154.223  -2743719.319   5095462.485
10 0 59269  71742.000000  0    3031260.567  -2494663.211   5650322.420
10 0 59269  71862.000000  0    2291279.887  -2189508.136   6105801.395
10 0 59269  71982.000000  0    1517091.700  -1832877.199   6453927.118
10 0 59269  72102.000000  0     723070.680  -1430533.688   6688614.114
10 0 59269  72222.000000  0     -76182.584   -989286.128   6805763.952
10 0 59269  72342.000000  0    -866110.070   -516871.731   6803331.695
10 0 59269  72462.000000  0   -1632460.207    -21820.768   6681358.839
10 0 59269  72582.000000  0   -2361543.831    486697.059   6441972.746
99
